IRIDIUM 106             
1 41917U 17003A   23314.54594782  .00000181  00000+0  57500-4 0  9990
2 41917  86.3937 125.4246 0002194  95.7568 264.3878 14.34216062357091
IRIDIUM 103             
1 41918U 17003B   23314.53326650  .00000183  00000+0  58176-4 0  9999
2 41918  86.3937 125.3322 0001762  95.1359 265.0038 14.34215547357114
IRIDIUM 109             
1 41919U 17003C   23314.53961720  .00000168  00000+0  52899-4 0  9992
2 41919  86.3939 125.3736 0001937  83.7631 276.3785 14.34218586357082
IRIDIUM 102             
1 41920U 17003D   23314.43814042  .00000219  00000+0  71184-4 0  9992
2 41920  86.3937 125.3597 0002074  84.1877 275.9555 14.34221328357153
IRIDIUM 105             
1 41921U 17003E   23314.47857603  .00000722  00000+0  25070-3 0  9998
2 41921  86.3942  93.7490 0002003  94.2780 265.8644 14.34226835359019
IRIDIUM 104             
1 41922U 17003F   23314.45081099  .00000229  00000+0  74780-4 0  9990
2 41922  86.3938 125.3826 0001832  89.4542 270.6864 14.34221059357144
IRIDIUM 114             
1 41923U 17003G   23314.52691483  .00000221  00000+0  71919-4 0  9996
2 41923  86.3939 125.3374 0002396  93.8687 266.2783 14.34220588357135
IRIDIUM 108             
1 41924U 17003H   23314.62496960  .00000695  00000+0  24092-3 0  9995
2 41924  86.3937  93.6267 0002123  99.8890 260.2546 14.34217859359008
